{
  "norad_id": 55045,
  "name": "CONTINUUM-1",
  "history": [
    {
      "epoch": "2026-03-28T21:26:45.366432Z",
      "apogee_km": 486.65382431069156,
      "perigee_km": 474.16811207651426,
      "latitude_deg": -5.456924113575285e-06,
      "longitude_deg": 4.056884716396402,
      "height_km": 477.2849654851731,
      "semi_major_axis_km": 6858.547968193603,
      "eccentricity": 0.00091023,
      "inclination_deg": 97.3426,
      "raan_deg": 152.0534,
      "arg_perigee_deg": 356.1958,
      "mean_anomaly_deg": 3.9211,
      "mean_motion_rev_day": 15.28461456
    },
    {
      "epoch": "2026-03-29T03:43:50.823840Z",
      "apogee_km": 486.6146065807252,
      "perigee_km": 474.1567859552242,
      "latitude_deg": 7.474682866210247e-05,
      "longitude_deg": -90.2157743121651,
      "height_km": 477.2819258293321,
      "semi_major_axis_km": 6858.522696267974,
      "eccentricity": 0.0009082,
      "inclination_deg": 97.3425,
      "raan_deg": 152.3116,
      "arg_perigee_deg": 355.2032,
      "mean_anomaly_deg": 4.912,
      "mean_motion_rev_day": 15.28469904
    },
    {
      "epoch": "2026-03-30T04:52:11.349696Z",
      "apogee_km": 486.4510373960802,
      "perigee_km": 474.1072600116431,
      "latitude_deg": -6.343564107962308e-05,
      "longitude_deg": -107.30100382180083,
      "height_km": 477.2860273579787,
      "semi_major_axis_km": 6858.416148703861,
      "eccentricity": 0.0008999,
      "inclination_deg": 97.3422,
      "raan_deg": 153.3443,
      "arg_perigee_deg": 351.0886,
      "mean_anomaly_deg": 9.0192,
      "mean_motion_rev_day": 15.28505522
    },
    {
      "epoch": "2026-03-30T04:52:11.352288Z",
      "apogee_km": 486.4513338051074,
      "perigee_km": 474.1075558876728,
      "latitude_deg": -6.358807688156093e-05,
      "longitude_deg": -107.3009146318353,
      "height_km": 477.2863214312954,
      "semi_major_axis_km": 6858.41644484639,
      "eccentricity": 0.0008999,
      "inclination_deg": 97.3422,
      "raan_deg": 153.3444,
      "arg_perigee_deg": 351.0887,
      "mean_anomaly_deg": 9.0191,
      "mean_motion_rev_day": 15.28505423
    },
    {
      "epoch": "2026-03-30T14:17:48.528384Z",
      "apogee_km": 486.3972130290076,
      "perigee_km": 474.0839562486508,
      "latitude_deg": 7.337464521360941e-05,
      "longitude_deg": 111.29431501142317,
      "height_km": 477.29240731033036,
      "semi_major_axis_km": 6858.377584638829,
      "eccentricity": 0.00089768,
      "inclination_deg": 97.3422,
      "raan_deg": 153.7317,
      "arg_perigee_deg": 349.4611,
      "mean_anomaly_deg": 10.644,
      "mean_motion_rev_day": 15.28518414
    },
    {
      "epoch": "2026-03-30T22:09:09.282240Z",
      "apogee_km": 486.32327827750123,
      "perigee_km": 474.0934768002726,
      "latitude_deg": -3.6395828655900714e-06,
      "longitude_deg": -6.542073944681562,
      "height_km": 477.3281627539002,
      "semi_major_axis_km": 6858.345377538886,
      "eccentricity": 0.0008916,
      "inclination_deg": 97.3422,
      "raan_deg": 154.0544,
      "arg_perigee_deg": 348.1726,
      "mean_anomaly_deg": 11.9303,
      "mean_motion_rev_day": 15.28529181
    },
    {
      "epoch": "2026-03-31T20:08:54.414816Z",
      "apogee_km": 486.1608160650412,
      "perigee_km": 474.0889035394175,
      "latitude_deg": -2.2876357642281857e-05,
      "longitude_deg": 23.520339098992785,
      "height_km": 477.4053958725954,
      "semi_major_axis_km": 6858.261859802229,
      "eccentricity": 0.0008801,
      "inclination_deg": 97.3419,
      "raan_deg": 154.9582,
      "arg_perigee_deg": 344.8068,
      "mean_anomaly_deg": 15.2906,
      "mean_motion_rev_day": 15.28557102
    },
    {
      "epoch": "2026-04-01T19:42:54.150048Z",
      "apogee_km": 486.0292668155271,
      "perigee_km": 474.075442770124,
      "latitude_deg": -1.8204488016051978e-05,
      "longitude_deg": 30.021797349866432,
      "height_km": 477.50378710682037,
      "semi_major_axis_km": 6858.189354792826,
      "eccentricity": 0.0008715,
      "inclination_deg": 97.3415,
      "raan_deg": 155.9264,
      "arg_perigee_deg": 341.1025,
      "mean_anomaly_deg": 18.989,
      "mean_motion_rev_day": 15.28581342
    },
    {
      "epoch": "2026-04-02T19:16:52.146048Z",
      "apogee_km": 485.8633818560911,
      "perigee_km": 474.011257816549,
      "latitude_deg": 1.8037874499878037e-05,
      "longitude_deg": 36.53061773997303,
      "height_km": 477.5867174390306,
      "semi_major_axis_km": 6858.07431983632,
      "eccentricity": 0.0008641,
      "inclination_deg": 97.341,
      "raan_deg": 156.8947,
      "arg_perigee_deg": 337.062,
      "mean_anomaly_deg": 23.0233,
      "mean_motion_rev_day": 15.28619802
    },
    {
      "epoch": "2026-04-02T22:25:23.689344Z",
      "apogee_km": 485.81891557185554,
      "perigee_km": 474.0000326002746,
      "latitude_deg": 7.181975671510396e-05,
      "longitude_deg": -10.600660729941946,
      "height_km": 477.5964323603148,
      "semi_major_axis_km": 6858.046474086064,
      "eccentricity": 0.00086168,
      "inclination_deg": 97.3408,
      "raan_deg": 157.0239,
      "arg_perigee_deg": 336.5167,
      "mean_anomaly_deg": 23.5679,
      "mean_motion_rev_day": 15.28629112
    },
    {
      "epoch": "2026-04-03T20:25:03.349344Z",
      "apogee_km": 485.6383966552594,
      "perigee_km": 473.9387756053211,
      "latitude_deg": 9.722417972950558e-06,
      "longitude_deg": 19.484421349609914,
      "height_km": 477.6783092489773,
      "semi_major_axis_km": 6857.92558613029,
      "eccentricity": 0.000853,
      "inclination_deg": 97.3406,
      "raan_deg": 157.9275,
      "arg_perigee_deg": 333.1198,
      "mean_anomaly_deg": 26.9599,
      "mean_motion_rev_day": 15.28669531
    }
  ]
}